NORAD_CAT_ID,OBJECT_NAME,OBJECT_TYPE,EPOCH,MEAN_MOTION,ECCENTRICITY,INCLINATION,RA_OF_ASC_NODE,ARG_OF_PERICENTER,MEAN_ANOMALY,BSTAR,MEAN_MOTION_DOT,MEAN_MOTION_DDOT,TLE_LINE0,TLE_LINE1,TLE_LINE2,SEMIMAJOR_AXIS,PERIOD,APOGEE,PERIGEE,DECAYED
55927.0,STARLINK-5919,PAYLOAD,2023-12-17 21:55:28,14.98329877,0.0002228,69.9985,193.6507,259.7764,100.3144,3.8985e-05,3.72e-06,0.0,0 STARLINK-5919,1 55927U 23037P   23351.91351971  .00000372  00000-0  38985-4 0  9992,2 55927  69.9985 193.6507 0002228 259.7764 100.3144 14.98329877 41748,6950.193,96.107,573.607,570.51,0.0
55927.0,STARLINK-5919,PAYLOAD,2023-12-18 13:56:48,14.98332623,0.000219,69.9985,191.9679,260.1562,99.935,2.4479e-05,1.99e-06,0.0,0 STARLINK-5919,1 55927U 23037P   23352.58111765  .00000199  00000-0  24479-4 0  9991,2 55927  69.9985 191.9679 0002190 260.1562  99.9350 14.98332623 41845,6950.185,96.107,573.572,570.528,0.0
55927.0,STARLINK-5919,PAYLOAD,2023-12-18 21:57:28,14.98333206,0.0002171,69.9986,191.126,259.0499,101.0416,3.2559e-05,2.96e-06,0.0,0 STARLINK-5919,1 55927U 23037P   23352.91491645  .00000296  00000-0  32559-4 0  9992,2 55927  69.9986 191.1260 0002171 259.0499 101.0416 14.98333206 41890,6950.183,96.107,573.557,570.539,0.0
55927.0,STARLINK-5919,PAYLOAD,2023-12-18 23:33:36,14.98333002,0.0002167,69.9985,190.9575,260.8558,99.2356,2.9998e-05,2.65e-06,0.0,0 STARLINK-5919,1 55927U 23037P   23352.98167661  .00000265  00000-0  29998-4 0  9996,2 55927  69.9985 190.9575 0002167 260.8558  99.2356 14.98333002 42241,6950.184,96.107,573.555,570.543,0.0
55927.0,STARLINK-5919,PAYLOAD,2023-12-19 13:58:49,14.98329291,0.0002081,69.9986,189.4427,260.2366,99.8559,2.0213e-05,1.48e-06,0.0,0 STARLINK-5919,1 55927U 23037P   23353.58251886  .00000148  00000-0  20213-4 0  9997,2 55927  69.9986 189.4427 0002081 260.2366  99.8559 14.98329291 41994,6950.195,96.107,573.506,570.614,0.0
55927.0,STARLINK-5919,PAYLOAD,2023-12-19 21:59:30,14.98325745,0.0002169,69.9986,188.6008,263.3178,96.7734,-2.8958e-05,-4.38e-06,0.0,0 STARLINK-5919,1 55927U 23037P   23353.91632278 -.00000438  00000-0 -28958-4 0  9990,2 55927  69.9986 188.6008 0002169 263.3178  96.7734 14.98325745 42387,6950.206,96.107,573.579,570.564,0.0
55927.0,STARLINK-5919,PAYLOAD,2023-12-20 14:00:50,14.98333696,0.0002269,69.9984,186.9174,267.4978,92.5921,2.5026e-05,2.06e-06,0.0,0 STARLINK-5919,1 55927U 23037P   23354.58391640  .00000206  00000-0  25026-4 0  9993,2 55927  69.9984 186.9174 0002269 267.4978  92.5921 14.98333696 42144,6950.181,96.107,573.623,570.469,0.0
55927.0,STARLINK-5919,PAYLOAD,2023-12-20 20:25:22,14.98333344,0.0002274,69.9985,186.244,269.1899,90.9,2.2836e-05,1.8e-06,0.0,0 STARLINK-5919,1 55927U 23037P   23354.85095618  .00000180  00000-0  22836-4 0  9996,2 55927  69.9985 186.2440 0002274 269.1899  90.9000 14.98333344 42523,6950.183,96.107,573.628,570.467,0.0
55927.0,STARLINK-5919,PAYLOAD,2023-12-20 22:01:30,14.98333786,0.0002273,69.9985,186.0757,269.16,90.9299,2.7758e-05,2.38e-06,0.0,0 STARLINK-5919,1 55927U 23037P   23354.91771572  .00000238  00000-0  27758-4 0  9995,2 55927  69.9985 186.0757 0002273 269.1600  90.9299 14.98333786 42194,6950.181,96.107,573.626,570.466,0.0
55927.0,STARLINK-5919,PAYLOAD,2023-12-21 14:02:51,14.98329166,0.0002346,69.9985,184.3923,272.3328,87.7562,5.9714e-05,6.2e-06,0.0,0 STARLINK-5919,1 55927U 23037P   23355.58531707  .00000620  00000-0  59714-4 0  9995,2 55927  69.9985 184.3923 0002346 272.3328  87.7562 14.98329166 42299,6950.195,96.107,573.691,570.43,0.0
55927.0,STARLINK-5919,PAYLOAD,2023-12-21 22:03:31,14.98329689,0.0002338,69.9986,183.551,271.1979,88.8912,5.8863e-05,6.09e-06,0.0,0 STARLINK-5919,1 55927U 23037P   23355.91911685  .00000609  00000-0  58863-4 0  9990,2 55927  69.9986 183.5510 0002338 271.1979  88.8912 14.98329689 42340,6950.194,96.107,573.684,570.434,0.0
55927.0,STARLINK-5919,PAYLOAD,2023-12-22 14:04:52,14.98333122,0.0002262,69.9988,181.8681,267.8942,92.1958,2.1477e-05,1.63e-06,0.0,0 STARLINK-5919,1 55927U 23037P   23356.58671534  .00000163  00000-0  21477-4 0  9996,2 55927  69.9988 181.8681 0002262 267.8942  92.1958 14.98333122 42446,6950.183,96.107,573.62,570.476,0.0
55927.0,STARLINK-5919,PAYLOAD,2023-12-22 22:05:32,14.98332957,0.000227,69.9989,181.0267,267.4448,92.6451,1.6912e-05,1.09e-06,0.0,0 STARLINK-5919,1 55927U 23037P   23356.92051481  .00000109  00000-0  16912-4 0  9995,2 55927  69.9989 181.0267 0002270 267.4448  92.6451 14.98332957 42498,6950.184,96.107,573.626,570.471,0.0
55927.0,STARLINK-5919,PAYLOAD,2023-12-23 14:06:53,14.98329341,0.0002253,69.999,179.3437,268.8032,91.2869,2.0867e-05,1.56e-06,0.0,0 STARLINK-5919,1 55927U 23037P   23357.58811667  .00000156  00000-0  20867-4 0  9994,2 55927  69.9990 179.3437 0002253 268.8032  91.2869 14.98329341 42596,6950.195,96.107,573.626,570.494,0.0
55927.0,STARLINK-5919,PAYLOAD,2023-12-23 22:07:33,14.98329478,0.0002266,69.9991,178.5022,269.8446,90.2453,2.0413e-05,1.51e-06,0.0,0 STARLINK-5919,1 55927U 23037P   23357.92191677  .00000151  00000-0  20413-4 0  9996,2 55927  69.9991 178.5022 0002266 269.8446  90.2453 14.98329478 42647,6950.195,96.107,573.634,570.485,0.0
55927.0,STARLINK-5919,PAYLOAD,2023-12-24 14:08:53,14.98332889,0.0002314,69.999,176.8189,272.1308,87.9586,4.9758e-05,5.01e-06,0.0,0 STARLINK-5919,1 55927U 23037P   23358.58951324  .00000501  00000-0  49758-4 0  9994,2 55927  69.9990 176.8189 0002314 272.1308  87.9586 14.98332889 42740,6950.184,96.107,573.657,570.441,0.0
55927.0,STARLINK-5919,PAYLOAD,2023-12-24 22:09:34,14.9833388,0.0002295,69.9992,175.9771,270.9954,89.0942,5.7584e-05,5.94e-06,0.0,0 STARLINK-5919,1 55927U 23037P   23358.92331196  .00000594  00000-0  57584-4 0  9999,2 55927  69.9992 175.9771 0002295 270.9954  89.0942 14.98333880 42796,6950.181,96.107,573.641,570.451,0.0
55927.0,STARLINK-5919,PAYLOAD,2023-12-25 14:10:54,14.98330481,0.0002277,69.9992,174.294,270.96,89.1298,4.8054e-05,4.8e-06,0.0,0 STARLINK-5919,1 55927U 23037P   23359.59091338  .00000480  00000-0  48054-4 0  9990,2 55927  69.9992 174.2940 0002277 270.9600  89.1298 14.98330481 42894,6950.191,96.107,573.639,570.474,0.0
55927.0,STARLINK-5919,PAYLOAD,2023-12-25 22:11:35,14.98314103,0.0002279,69.9995,173.4519,280.7017,79.3886,0.00033888,3.951e-05,0.0,0 STARLINK-5919,1 55927U 23037P   23359.92471748  .00003951  00000-0  33888-3 0  9998,2 55927  69.9995 173.4519 0002279 280.7017  79.3886 14.98314103 42946,6950.242,96.108,573.691,570.523,0.0
55927.0,STARLINK-5919,PAYLOAD,2023-12-26 11:00:39,14.98328747,0.0002224,69.9999,172.1057,271.0502,89.0402,2.1985e-05,1.69e-06,0.0,0 STARLINK-5919,1 55927U 23037P   23360.45879480  .00000169  00000-0  21985-4 0  9997,2 55927  69.9999 172.1057 0002224 271.0502  89.0402 14.98328747 43363,6950.197,96.107,573.607,570.516,0.0
55927.0,STARLINK-5919,PAYLOAD,2023-12-26 14:12:55,14.98329908,0.0002125,69.9999,171.7697,261.656,98.4359,2.225e-05,1.73e-06,0.0,0 STARLINK-5919,1 55927U 23037P   23360.59231358  .00000173  00000-0  22250-4 0  9999,2 55927  69.9999 171.7697 0002125 261.6560  98.4359 14.98329908 43047,6950.193,96.107,573.535,570.581,0.0
55927.0,STARLINK-5919,PAYLOAD,2023-12-26 20:37:28,14.98328743,0.0002368,69.9999,171.0965,271.2018,88.887,2.525e-07,-9e-07,0.0,0 STARLINK-5919,1 55927U 23037P   23360.85935494 -.00000090  00000-0  25250-6 0  9994,2 55927  69.9999 171.0965 0002368 271.2018  88.8870 14.98328743 43083,6950.197,96.107,573.708,570.416,0.0
55927.0,STARLINK-5919,PAYLOAD,2023-12-27 11:02:40,14.98331432,0.0002391,69.9998,169.5826,272.1632,87.9253,3.3722e-05,3.09e-06,0.0,0 STARLINK-5919,1 55927U 23037P   23361.46019219  .00000309  00000-0  33722-4 0  9993,2 55927  69.9998 169.5826 0002391 272.1632  87.9253 14.98331432 43510,6950.188,96.107,573.715,570.392,0.0
55927.0,STARLINK-5919,PAYLOAD,2023-12-27 14:14:56,14.98331679,0.0002399,69.9998,169.246,270.9307,89.1577,3.3628e-05,3.08e-06,0.0,0 STARLINK-5919,1 55927U 23037P   23361.59371186  .00000308  00000-0  33628-4 0  9995,2 55927  69.9998 169.2460 0002399 270.9307  89.1577 14.98331679 43194,6950.188,96.107,573.72,570.385,0.0
55927.0,STARLINK-5919,PAYLOAD,2023-12-27 20:39:28,14.98331527,0.0002396,69.9998,168.5728,270.522,89.5665,2.9971e-05,2.65e-06,0.0,0 STARLINK-5919,1 55927U 23037P   23361.86075162  .00000265  00000-0  29971-4 0  9998,2 55927  69.9998 168.5728 0002396 270.5220  89.5665 14.98331527 43239,6950.188,96.107,573.718,570.388,0.0
55927.0,STARLINK-5919,PAYLOAD,2023-12-28 11:04:41,14.98328928,0.0002385,69.9999,167.0579,269.4958,90.5928,3.1385e-05,2.82e-06,0.0,0 STARLINK-5919,1 55927U 23037P   23362.46159315  .00000282  00000-0  31385-4 0  9999,2 55927  69.9999 167.0579 0002385 269.4958  90.5928 14.98328928 43663,6950.196,96.107,573.719,570.404,0.0
55927.0,STARLINK-5919,PAYLOAD,2023-12-28 14:16:57,14.9832888,0.0002401,69.9999,166.7211,268.4768,91.6116,2.7183e-05,2.31e-06,0.0,0 STARLINK-5919,1 55927U 23037P   23362.59511319  .00000231  00000-0  27183-4 0  9994,2 55927  69.9999 166.7211 0002401 268.4768  91.6116 14.98328880 43342,6950.196,96.107,573.73,570.393,0.0
55927.0,STARLINK-5919,PAYLOAD,2023-12-28 20:41:30,14.98328229,0.0002404,70.0,166.0481,268.9942,91.0941,1.7583e-05,1.17e-06,0.0,0 STARLINK-5919,1 55927U 23037P   23362.86215386  .00000117  00000-0  17583-4 0  9995,2 55927  70.0000 166.0481 0002404 268.9942  91.0941 14.98328229 43383,6950.198,96.107,573.734,570.393,0.0
55927.0,STARLINK-5919,PAYLOAD,2023-12-29 11:06:42,14.9833073,0.0002413,70.0,164.5333,269.8679,90.2204,1.5713e-05,9.5e-07,0.0,0 STARLINK-5919,1 55927U 23037P   23363.46299271  .00000095  00000-0  15713-4 0  9995,2 55927  70.0000 164.5333 0002413 269.8679  90.2204 14.98330730 43810,6950.191,96.107,573.733,570.379,0.0
55927.0,STARLINK-5919,PAYLOAD,2023-12-29 14:18:58,14.98330513,0.0002427,70.0,164.1966,269.9211,90.167,1.1355e-05,4.3e-07,0.0,0 STARLINK-5919,1 55927U 23037P   23363.59651272  .00000043  00000-0  11355-4 0  9993,2 55927  70.0000 164.1966 0002427 269.9211  90.1670 14.98330513 43495,6950.191,96.107,573.743,570.369,0.0
